start=new Date('2023-03-21T00:00:00.000Z').valueOf();
sats=[{"PERIOD":"95.437","TLE_LINE2":"2 53140  53.2187   7.1290 0001025  82.9617 277.1491 15.08849356 37348","INCLINATION":"53.2187","REF_FRAME":"TEME","APOAPSIS":"540.426","RA_OF_ASC_NODE":"7.1290","ECCENTRICITY":"0.00010250","OBJECT_NAME":"STARLINK-4170","FILE":"3865912","PERIAPSIS":"539.008","DECAY_DATE":null,"COUNTRY_CODE":"US","SEMIMAJOR_AXIS":"6917.852","OBJECT_ID":"2022-083J","MEAN_ELEMENT_THEORY":"SGP4","EPOCH":"2023-03-20T04:30:06.117120","MEAN_ANOMALY":"277.1491","MEAN_MOTION_DOT":"0.00001803","SITE":"AFETR","NORAD_CAT_ID":"53140","RCS_SIZE":"LARGE","EPHEMERIS_TYPE":"0","MEAN_MOTION":"15.08849356","TLE_LINE1":"1 53140U 22083J   23079.18757080  .00001803  00000-0  13132-3 0  9990","LAUNCH_DATE":"2022-07-17","ARG_OF_PERICENTER":"82.9617","OBJECT_TYPE":"PAYLOAD","CENTER_NAME":"EARTH","TIME_SYSTEM":"UTC","GP_ID":"228517892","REV_AT_EPOCH":"3734","ELEMENT_SET_NO":"999","MEAN_MOTION_DDOT":"0.0000000000000","CLASSIFICATION_TYPE":"U","BSTAR":"0.00013132000000"},{"MEAN_MOTION_DDOT":"0.0000000000000","CLASSIFICATION_TYPE":"U","ELEMENT_SET_NO":"999","BSTAR":"0.00179450000000","TIME_SYSTEM":"UTC","REV_AT_EPOCH":"3734","GP_ID":"228516646","CENTER_NAME":"EARTH","OBJECT_TYPE":"PAYLOAD","LAUNCH_DATE":"2022-07-17","ARG_OF_PERICENTER":"77.0301","EPHEMERIS_TYPE":"0","TLE_LINE1":"1 53141U 22083K   23079.16917275  .00028394  00000-0  17945-2 0  9992","MEAN_MOTION":"15.08848960","RCS_SIZE":"LARGE","NORAD_CAT_ID":"53141","SITE":"AFETR","MEAN_MOTION_DOT":"0.00028394","MEAN_ELEMENT_THEORY":"SGP4","EPOCH":"2023-03-20T04:03:36.525600","MEAN_ANOMALY":"283.0823","SEMIMAJOR_AXIS":"6917.853","OBJECT_ID":"2022-083K","COUNTRY_CODE":"US","DECAY_DATE":null,"FILE":"3865912","PERIAPSIS":"538.901","OBJECT_NAME":"STARLINK-4103","INCLINATION":"53.2183","ECCENTRICITY":"0.00011810","APOAPSIS":"540.535","RA_OF_ASC_NODE":"7.2130","REF_FRAME":"TEME","TLE_LINE2":"2 53141  53.2183   7.2130 0001181  77.0301 283.0823 15.08848960 37342","PERIOD":"95.437"},{"ARG_OF_PERICENTER":"108.6519","LAUNCH_DATE":"2022-07-17","OBJECT_TYPE":"PAYLOAD","EPHEMERIS_TYPE":"0","MEAN_MOTION":"15.08866536","TLE_LINE1":"1 53142U 22083L   23079.18021018  .00019671  00000-0  12497-2 0  9991","NORAD_CAT_ID":"53142","RCS_SIZE":"LARGE","MEAN_MOTION_DOT":"0.00019671","SITE":"AFETR","CLASSIFICATION_TYPE":"U","MEAN_MOTION_DDOT":"0.0000000000000","ELEMENT_SET_NO":"999","BSTAR":"0.00124970000000","TIME_SYSTEM":"UTC","REV_AT_EPOCH":"3735","GP_ID":"228517395","CENTER_NAME":"EARTH","FILE":"3865912","PERIAPSIS":"538.926","OBJECT_NAME":"STARLINK-4101","INCLINATION":"53.2162","REF_FRAME":"TEME","ECCENTRICITY":"0.00010670","APOAPSIS":"540.402","RA_OF_ASC_NODE":"7.1608","TLE_LINE2":"2 53142  53.2162   7.1608 0001067 108.6519 251.4589 15.08866536 37352","PERIOD":"95.436","MEAN_ELEMENT_THEORY":"SGP4","EPOCH":"2023-03-20T04:19:30.159552","MEAN_ANOMALY":"251.4589","SEMIMAJOR_AXIS":"6917.799","OBJECT_ID":"2022-083L","COUNTRY_CODE":"US","DECAY_DATE":null},{"SEMIMAJOR_AXIS":"6917.811","OBJECT_ID":"2022-083M","MEAN_ELEMENT_THEORY":"SGP4","MEAN_ANOMALY":"246.5470","EPOCH":"2023-03-20T05:33:41.177376","DECAY_DATE":null,"COUNTRY_CODE":"US","OBJECT_NAME":"STARLINK-4102","FILE":"3865974","PERIAPSIS":"538.750","TLE_LINE2":"2 53143  53.2191   6.9333 0001339 113.5663 246.5470 15.08862613 37989","PERIOD":"95.436","INCLINATION":"53.2191","REF_FRAME":"TEME","ECCENTRICITY":"0.00013390","APOAPSIS":"540.603","RA_OF_ASC_NODE":"6.9333","TIME_SYSTEM":"UTC","GP_ID":"228521733","REV_AT_EPOCH":"3798","ELEMENT_SET_NO":"999","MEAN_MOTION_DDOT":"0.0000000000000","CLASSIFICATION_TYPE":"U","BSTAR":"0.00159150000000","CENTER_NAME":"EARTH","EPHEMERIS_TYPE":"0","MEAN_MOTION":"15.08862613","TLE_LINE1":"1 53143U 22083M   23079.23172659  .00025147  00000-0  15915-2 0  9999","LAUNCH_DATE":"2022-07-17","ARG_OF_PERICENTER":"113.5663","OBJECT_TYPE":"PAYLOAD","MEAN_MOTION_DOT":"0.00025147","SITE":"AFETR","RCS_SIZE":"LARGE","NORAD_CAT_ID":"53143"},{"TIME_SYSTEM":"UTC","GP_ID":"228518391","REV_AT_EPOCH":"3735","CLASSIFICATION_TYPE":"U","MEAN_MOTION_DDOT":"0.0000000000000","ELEMENT_SET_NO":"999","BSTAR":"0.00117870000000","CENTER_NAME":"EARTH","EPHEMERIS_TYPE":"0","TLE_LINE1":"1 53144U 22083N   23079.24276776  .00018532  00000-0  11787-2 0  9999","MEAN_MOTION":"15.08861428","OBJECT_TYPE":"PAYLOAD","ARG_OF_PERICENTER":"76.6005","LAUNCH_DATE":"2022-07-17","SITE":"AFETR","MEAN_MOTION_DOT":"0.00018532","RCS_SIZE":"LARGE","NORAD_CAT_ID":"53144","SEMIMAJOR_AXIS":"6917.815","OBJECT_ID":"2022-083N","MEAN_ELEMENT_THEORY":"SGP4","EPOCH":"2023-03-20T05:49:35.134464","MEAN_ANOMALY":"283.5120","DECAY_DATE":null,"COUNTRY_CODE":"US","OBJECT_NAME":"STARLINK-4100","FILE":"3865912","PERIAPSIS":"538.851","TLE_LINE2":"2 53144  53.2166   6.8789 0001198  76.6005 283.5120 15.08861428 37355","PERIOD":"95.436","INCLINATION":"53.2166","APOAPSIS":"540.509","ECCENTRICITY":"0.00011980","RA_OF_ASC_NODE":"6.8789","REF_FRAME":"TEME"},{"MEAN_ELEMENT_THEORY":"SGP4","EPOCH":"2023-03-20T02:12:19.289952","MEAN_ANOMALY":"273.1105","SEMIMAJOR_AXIS":"6917.851","OBJECT_ID":"2022-083P","COUNTRY_CODE":"US","DECAY_DATE":null,"FILE":"3865912","PERIAPSIS":"539.067","OBJECT_NAME":"STARLINK-4106","INCLINATION":"53.2171","APOAPSIS":"540.366","ECCENTRICITY":"0.00009390","RA_OF_ASC_NODE":"7.5626","REF_FRAME":"TEME","TLE_LINE2":"2 53145  53.2171   7.5626 0000939  86.9994 273.1105 15.08849576 37339","PERIOD":"95.437","MEAN_MOTION_DDOT":"0.0000000000000","CLASSIFICATION_TYPE":"U","ELEMENT_SET_NO":"999","BSTAR":"0.00021336000000","TIME_SYSTEM":"UTC","REV_AT_EPOCH":"3733","GP_ID":"228517146","CENTER_NAME":"EARTH","OBJECT_TYPE":"PAYLOAD","LAUNCH_DATE":"2022-07-17","ARG_OF_PERICENTER":"86.9994","EPHEMERIS_TYPE":"0","TLE_LINE1":"1 53145U 22083P   23079.09188993  .00003110  00000-0  21336-3 0  9994","MEAN_MOTION":"15.08849576","RCS_SIZE":"MEDIUM","NORAD_CAT_ID":"53145","SITE":"AFETR","MEAN_MOTION_DOT":"0.00003110"},{"CENTER_NAME":"EARTH","ELEMENT_SET_NO":"999","MEAN_MOTION_DDOT":"0.0000000000000","BSTAR":"0.00041311000000","CLASSIFICATION_TYPE":"U","REV_AT_EPOCH":"3734","GP_ID":"228516896","TIME_SYSTEM":"UTC","NORAD_CAT_ID":"53146","RCS_SIZE":"LARGE","SITE":"AFETR","MEAN_MOTION_DOT":"0.00006295","OBJECT_TYPE":"PAYLOAD","ARG_OF_PERICENTER":"96.7515","LAUNCH_DATE":"2022-07-17","TLE_LINE1":"1 53146U 22083Q   23079.17285228  .00006295  00000-0  41311-3 0  9995","MEAN_MOTION":"15.08850709","EPHEMERIS_TYPE":"0","COUNTRY_CODE":"US","DECAY_DATE":null,"EPOCH":"2023-03-20T04:08:54.436992","MEAN_ANOMALY":"263.3641","MEAN_ELEMENT_THEORY":"SGP4","OBJECT_ID":"2022-083Q","SEMIMAJOR_AXIS":"6917.848","APOAPSIS":"540.710","RA_OF_ASC_NODE":"7.1984","ECCENTRICITY":"0.00014410","REF_FRAME":"TEME","INCLINATION":"53.2177","TLE_LINE2":"2 53146  53.2177   7.1984 0001441  96.7515 263.3641 15.08850709 37343","PERIOD":"95.437","PERIAPSIS":"538.716","FILE":"3865912","OBJECT_NAME":"STARLINK-4099"},{"PERIOD":"95.439","TLE_LINE2":"2 53147  53.2188   5.7890 0001168  69.9653 290.1465 15.08822067 38043","RA_OF_ASC_NODE":"5.7890","APOAPSIS":"540.608","ECCENTRICITY":"0.00011680","REF_FRAME":"TEME","INCLINATION":"53.2188","OBJECT_NAME":"STARLINK-4094","PERIAPSIS":"538.992","FILE":"3865912","DECAY_DATE":null,"COUNTRY_CODE":"US","OBJECT_ID":"2022-083R","SEMIMAJOR_AXIS":"6917.935","EPOCH":"2023-03-20T11:39:20.352672","MEAN_ANOMALY":"290.1465","MEAN_ELEMENT_THEORY":"SGP4","SITE":"AFETR","MEAN_MOTION_DOT":"0.00003101","RCS_SIZE":"MEDIUM","NORAD_CAT_ID":"53147","TLE_LINE1":"1 53147U 22083R   23079.48565223  .00003101  00000-0  21293-3 0  9996","MEAN_MOTION":"15.08822067","EPHEMERIS_TYPE":"0","OBJECT_TYPE":"PAYLOAD","ARG_OF_PERICENTER":"69.9653","LAUNCH_DATE":"2022-07-17","CENTER_NAME":"EARTH","GP_ID":"228517644","REV_AT_EPOCH":"3804","TIME_SYSTEM":"UTC","CLASSIFICATION_TYPE":"U","MEAN_MOTION_DDOT":"0.0000000000000","BSTAR":"0.00021293000000","ELEMENT_SET_NO":"999"},{"ELEMENT_SET_NO":"999","MEAN_MOTION_DDOT":"0.0000000000000","CLASSIFICATION_TYPE":"U","BSTAR":"0.00020828000000","GP_ID":"228521750","REV_AT_EPOCH":"3798","TIME_SYSTEM":"UTC","CENTER_NAME":"EARTH","OBJECT_TYPE":"PAYLOAD","LAUNCH_DATE":"2022-07-17","ARG_OF_PERICENTER":"80.7602","TLE_LINE1":"1 53148U 22083S   23079.22900635  .00003030  00000-0  20828-3 0  9993","MEAN_MOTION":"15.08852027","EPHEMERIS_TYPE":"0","RCS_SIZE":"LARGE","NORAD_CAT_ID":"53148","SITE":"AFETR","MEAN_MOTION_DOT":"0.00003030","MEAN_ANOMALY":"279.3500","EPOCH":"2023-03-20T05:29:46.148640","MEAN_ELEMENT_THEORY":"SGP4","OBJECT_ID":"2022-083S","SEMIMAJOR_AXIS":"6917.844","COUNTRY_CODE":"US","DECAY_DATE":null,"PERIAPSIS":"539.036","FILE":"3865977","OBJECT_NAME":"STARLINK-4066","APOAPSIS":"540.381","RA_OF_ASC_NODE":"6.9544","ECCENTRICITY":"0.00009720","REF_FRAME":"TEME","INCLINATION":"53.2178","PERIOD":"95.437","TLE_LINE2":"2 53148  53.2178   6.9544 0000972  80.7602 279.3500 15.08852027 37989"},{"MEAN_ANOMALY":"277.9389","EPOCH":"2023-03-20T02:18:56.797344","MEAN_ELEMENT_THEORY":"SGP4","OBJECT_ID":"2022-083T","SEMIMAJOR_AXIS":"6917.855","COUNTRY_CODE":"US","DECAY_DATE":null,"PERIAPSIS":"538.972","FILE":"3865912","OBJECT_NAME":"STARLINK-4021","REF_FRAME":"TEME","APOAPSIS":"540.469","ECCENTRICITY":"0.00010820","RA_OF_ASC_NODE":"357.5365","INCLINATION":"53.2173","PERIOD":"95.437","TLE_LINE2":"2 53149  53.2173 357.5365 0001082  82.1726 277.9389 15.08848265 37479","CLASSIFICATION_TYPE":"U","MEAN_MOTION_DDOT":"0.0000000000000","BSTAR":"0.00017122000000","ELEMENT_SET_NO":"999","REV_AT_EPOCH":"3747","GP_ID":"228516647","TIME_SYSTEM":"UTC","CENTER_NAME":"EARTH","LAUNCH_DATE":"2022-07-17","ARG_OF_PERICENTER":"82.1726","OBJECT_TYPE":"PAYLOAD","MEAN_MOTION":"15.08848265","TLE_LINE1":"1 53149U 22083T   23079.09649071  .00002439  00000-0  17122-3 0  9998","EPHEMERIS_TYPE":"0","NORAD_CAT_ID":"53149","RCS_SIZE":"LARGE","MEAN_MOTION_DOT":"0.00002439","SITE":"AFETR"}];
